CCSDS_OMM_VERS = 2.0
CREATION_DATE  = 
ORIGINATOR     = 

OBJECT_NAME    = ATLAS CENTAUR R/B
OBJECT_ID      = 1972-065B
CENTER_NAME    = EARTH
REF_FRAME      = TEME
TIME_SYSTEM    = UTC
MEAN_ELEMENT_THEORY = SGP/SGP4

EPOCH          = 2026-04-05T10:46:34.424256
MEAN_MOTION    = 14.77768960
ECCENTRICITY   = .00340364
INCLINATION    = 35.0006
RA_OF_ASC_NODE = 148.9224
ARG_OF_PERICENTER = 236.1034
MEAN_ANOMALY   = 123.6427

EPHEMERIS_TYPE = 0
CLASSIFICATION_TYPE = U
NORAD_CAT_ID   = 6155
ELEMENT_SET_NO = 999
REV_AT_EPOCH   = 84522
BSTAR          = .23333873E-3
MEAN_MOTION_DOT = .1696E-4
MEAN_MOTION_DDOT = 0

CCSDS_OMM_VERS = 2.0
CREATION_DATE  = 
ORIGINATOR     = 

OBJECT_NAME    = SL-8 R/B
OBJECT_ID      = 1975-112B
CENTER_NAME    = EARTH
REF_FRAME      = TEME
TIME_SYSTEM    = UTC
MEAN_ELEMENT_THEORY = SGP/SGP4

EPOCH          = 2026-04-05T18:29:01.895712
MEAN_MOTION    = 14.38220338
ECCENTRICITY   = .0014735
INCLINATION    = 74.0618
RA_OF_ASC_NODE = 329.0999
ARG_OF_PERICENTER = 51.4217
MEAN_ANOMALY   = 308.8254

EPHEMERIS_TYPE = 0
CLASSIFICATION_TYPE = U
NORAD_CAT_ID   = 8459
ELEMENT_SET_NO = 999
REV_AT_EPOCH   = 63576
BSTAR          = .11701E-3
MEAN_MOTION_DOT = .33E-5
MEAN_MOTION_DDOT = 0

CCSDS_OMM_VERS = 2.0
CREATION_DATE  = 
ORIGINATOR     = 

OBJECT_NAME    = SL-3 R/B
OBJECT_ID      = 1977-057B
CENTER_NAME    = EARTH
REF_FRAME      = TEME
TIME_SYSTEM    = UTC
MEAN_ELEMENT_THEORY = SGP/SGP4

EPOCH          = 2026-04-05T18:37:36.733440
MEAN_MOTION    = 15.46322311
ECCENTRICITY   = .0007314
INCLINATION    = 97.5806
RA_OF_ASC_NODE = 268.9107
ARG_OF_PERICENTER = 175.9777
MEAN_ANOMALY   = 184.1532

EPHEMERIS_TYPE = 0
CLASSIFICATION_TYPE = U
NORAD_CAT_ID   = 10114
ELEMENT_SET_NO = 999
REV_AT_EPOCH   = 67251
BSTAR          = .32906E-3
MEAN_MOTION_DOT = .16162E-3
MEAN_MOTION_DDOT = 0

CCSDS_OMM_VERS = 2.0
CREATION_DATE  = 
ORIGINATOR     = 

OBJECT_NAME    = SEASAT 1
OBJECT_ID      = 1978-064A
CENTER_NAME    = EARTH
REF_FRAME      = TEME
TIME_SYSTEM    = UTC
MEAN_ELEMENT_THEORY = SGP/SGP4

EPOCH          = 2026-04-05T19:39:15.372288
MEAN_MOTION    = 14.46185231
ECCENTRICITY   = .0002734
INCLINATION    = 108.0067
RA_OF_ASC_NODE = 182.4213
ARG_OF_PERICENTER = 271.7809
MEAN_ANOMALY   = 88.3023

EPHEMERIS_TYPE = 0
CLASSIFICATION_TYPE = U
NORAD_CAT_ID   = 10967
ELEMENT_SET_NO = 999
REV_AT_EPOCH   = 51043
BSTAR          = .16085E-3
MEAN_MOTION_DOT = .439E-5
MEAN_MOTION_DDOT = 0

CCSDS_OMM_VERS = 2.0
CREATION_DATE  = 
ORIGINATOR     = 

OBJECT_NAME    = SL-14 R/B
OBJECT_ID      = 1979-011B
CENTER_NAME    = EARTH
REF_FRAME      = TEME
TIME_SYSTEM    = UTC
MEAN_ELEMENT_THEORY = SGP/SGP4

EPOCH          = 2026-04-05T21:03:44.249472
MEAN_MOTION    = 14.91947683
ECCENTRICITY   = .0015213
INCLINATION    = 82.5222
RA_OF_ASC_NODE = 70.7642
ARG_OF_PERICENTER = 331.9834
MEAN_ANOMALY   = 28.0565

EPHEMERIS_TYPE = 0
CLASSIFICATION_TYPE = U
NORAD_CAT_ID   = 11267
ELEMENT_SET_NO = 999
REV_AT_EPOCH   = 53283
BSTAR          = .85325E-4
MEAN_MOTION_DOT = .89E-5
MEAN_MOTION_DDOT = 0

CCSDS_OMM_VERS = 2.0
CREATION_DATE  = 
ORIGINATOR     = 

OBJECT_NAME    = SL-8 R/B
OBJECT_ID      = 1979-089B
CENTER_NAME    = EARTH
REF_FRAME      = TEME
TIME_SYSTEM    = UTC
MEAN_ELEMENT_THEORY = SGP/SGP4

EPOCH          = 2026-04-05T20:45:25.919712
MEAN_MOTION    = 14.42370189
ECCENTRICITY   = .0016466
INCLINATION    = 74.0704
RA_OF_ASC_NODE = 40.7361
ARG_OF_PERICENTER = 209.5418
MEAN_ANOMALY   = 150.4810

EPHEMERIS_TYPE = 0
CLASSIFICATION_TYPE = U
NORAD_CAT_ID   = 11574
ELEMENT_SET_NO = 999
REV_AT_EPOCH   = 44002
BSTAR          = .13073E-3
MEAN_MOTION_DOT = .406E-5
MEAN_MOTION_DDOT = 0

CCSDS_OMM_VERS = 2.0
CREATION_DATE  = 
ORIGINATOR     = 

OBJECT_NAME    = SL-14 R/B
OBJECT_ID      = 1980-005B
CENTER_NAME    = EARTH
REF_FRAME      = TEME
TIME_SYSTEM    = UTC
MEAN_ELEMENT_THEORY = SGP/SGP4

EPOCH          = 2026-04-05T20:11:39.240096
MEAN_MOTION    = 14.90964244
ECCENTRICITY   = .0017191
INCLINATION    = 82.5107
RA_OF_ASC_NODE = 281.4726
ARG_OF_PERICENTER = 74.5137
MEAN_ANOMALY   = 285.7979

EPHEMERIS_TYPE = 0
CLASSIFICATION_TYPE = U
NORAD_CAT_ID   = 11672
ELEMENT_SET_NO = 999
REV_AT_EPOCH   = 48053
BSTAR          = .73301E-4
MEAN_MOTION_DOT = .751E-5
MEAN_MOTION_DDOT = 0

CCSDS_OMM_VERS = 2.0
CREATION_DATE  = 
ORIGINATOR     = 

OBJECT_NAME    = SL-8 R/B
OBJECT_ID      = 1981-003B
CENTER_NAME    = EARTH
REF_FRAME      = TEME
TIME_SYSTEM    = UTC
MEAN_ELEMENT_THEORY = SGP/SGP4

EPOCH          = 2026-04-05T11:32:16.685952
MEAN_MOTION    = 15.12250511
ECCENTRICITY   = .02595368
INCLINATION    = 82.9349
RA_OF_ASC_NODE = 265.2248
ARG_OF_PERICENTER = 85.5930
MEAN_ANOMALY   = 277.4904

EPHEMERIS_TYPE = 0
CLASSIFICATION_TYPE = U
NORAD_CAT_ID   = 12139
ELEMENT_SET_NO = 999
REV_AT_EPOCH   = 31872
BSTAR          = .66332202E-3
MEAN_MOTION_DOT = .26697E-3
MEAN_MOTION_DDOT = 0

CCSDS_OMM_VERS = 2.0
CREATION_DATE  = 
ORIGINATOR     = 

OBJECT_NAME    = SL-3 R/B
OBJECT_ID      = 1981-046B
CENTER_NAME    = EARTH
REF_FRAME      = TEME
TIME_SYSTEM    = UTC
MEAN_ELEMENT_THEORY = SGP/SGP4

EPOCH          = 2026-04-05T20:07:11.967744
MEAN_MOTION    = 15.42716598
ECCENTRICITY   = .0018046
INCLINATION    = 81.2294
RA_OF_ASC_NODE = 257.1204
ARG_OF_PERICENTER = 285.4934
MEAN_ANOMALY   = 74.4316

EPHEMERIS_TYPE = 0
CLASSIFICATION_TYPE = U
NORAD_CAT_ID   = 12465
ELEMENT_SET_NO = 999
REV_AT_EPOCH   = 44261
BSTAR          = .32007E-3
MEAN_MOTION_DOT = .1409E-3
MEAN_MOTION_DDOT = 0

CCSDS_OMM_VERS = 2.0
CREATION_DATE  = 
ORIGINATOR     = 

OBJECT_NAME    = SL-3 R/B
OBJECT_ID      = 1981-103B
CENTER_NAME    = EARTH
REF_FRAME      = TEME
TIME_SYSTEM    = UTC
MEAN_ELEMENT_THEORY = SGP/SGP4

EPOCH          = 2026-04-05T19:13:30.472032
MEAN_MOTION    = 15.21717660
ECCENTRICITY   = .0013152
INCLINATION    = 81.1605
RA_OF_ASC_NODE = 181.6278
ARG_OF_PERICENTER = 190.4179
MEAN_ANOMALY   = 169.6782

EPHEMERIS_TYPE = 0
CLASSIFICATION_TYPE = U
NORAD_CAT_ID   = 12904
ELEMENT_SET_NO = 999
REV_AT_EPOCH   = 97735
BSTAR          = .26811E-3
MEAN_MOTION_DOT = .6109E-4
MEAN_MOTION_DDOT = 0

CCSDS_OMM_VERS = 2.0
CREATION_DATE  = 
ORIGINATOR     = 

OBJECT_NAME    = SL-3 R/B
OBJECT_ID      = 1982-013B
CENTER_NAME    = EARTH
REF_FRAME      = TEME
TIME_SYSTEM    = UTC
MEAN_ELEMENT_THEORY = SGP/SGP4

EPOCH          = 2026-04-05T19:09:46.111104
MEAN_MOTION    = 15.22271813
ECCENTRICITY   = .0023542
INCLINATION    = 81.1718
RA_OF_ASC_NODE = 128.9911
ARG_OF_PERICENTER = 89.0692
MEAN_ANOMALY   = 271.3237

EPHEMERIS_TYPE = 0
CLASSIFICATION_TYPE = U
NORAD_CAT_ID   = 13068
ELEMENT_SET_NO = 999
REV_AT_EPOCH   = 40847
BSTAR          = .19763E-3
MEAN_MOTION_DOT = .4608E-4
MEAN_MOTION_DDOT = 0

CCSDS_OMM_VERS = 2.0
CREATION_DATE  = 
ORIGINATOR     = 

OBJECT_NAME    = SL-3 R/B
OBJECT_ID      = 1982-039B
CENTER_NAME    = EARTH
REF_FRAME      = TEME
TIME_SYSTEM    = UTC
MEAN_ELEMENT_THEORY = SGP/SGP4

EPOCH          = 2026-04-05T19:44:51.558144
MEAN_MOTION    = 15.10247297
ECCENTRICITY   = .0028135
INCLINATION    = 81.1551
RA_OF_ASC_NODE = 184.6732
ARG_OF_PERICENTER = 233.8547
MEAN_ANOMALY   = 126.0075

EPHEMERIS_TYPE = 0
CLASSIFICATION_TYPE = U
NORAD_CAT_ID   = 13154
ELEMENT_SET_NO = 999
REV_AT_EPOCH   = 38573
BSTAR          = .19243E-3
MEAN_MOTION_DOT = .3199E-4
MEAN_MOTION_DDOT = 0

