ATLAS CENTAUR R/B       
1 06155U 72065B   26095.44900954  .00001696  00000+0  23334-3 0  9993
2 06155  35.0006 148.9224 0034036 236.1034 123.6427 14.77768960845229
SL-8 R/B                
1 08459U 75112B   26095.77016083  .00000330  00000+0  11701-3 0  9994
2 08459  74.0618 329.0999 0014735  51.4217 308.8254 14.38220338635766
SL-3 R/B                
1 10114U 77057B   26095.77611960  .00016162  00000+0  32906-3 0  9990
2 10114  97.5806 268.9107 0007314 175.9777 184.1532 15.46322311672518
SEASAT 1                
1 10967U 78064A   26095.81892792  .00000439  00000+0  16085-3 0  9994
2 10967 108.0067 182.4213 0002734 271.7809  88.3023 14.46185231510430
SL-14 R/B               
1 11267U 79011B   26095.87759548  .00000890  00000+0  85325-4 0  9993
2 11267  82.5222  70.7642 0015213 331.9834  28.0565 14.91947683532838
SL-8 R/B                
1 11574U 79089B   26095.86488333  .00000406  00000+0  13073-3 0  9992
2 11574  74.0704  40.7361 0016466 209.5418 150.4810 14.42370189440023
SL-14 R/B               
1 11672U 80005B   26095.84142639  .00000751  00000+0  73301-4 0  9999
2 11672  82.5107 281.4726 0017191  74.5137 285.7979 14.90964244480538
SL-8 R/B                
1 12139U 81003B   26095.48074868  .00026697  00000+0  66332-3 0  9997
2 12139  82.9349 265.2248 0259536  85.5930 277.4904 15.12250511318729
SL-3 R/B                
1 12465U 81046B   26095.83833296  .00014090  00000+0  32007-3 0  9999
2 12465  81.2294 257.1204 0018046 285.4934  74.4316 15.42716598442611
SL-3 R/B                
1 12904U 81103B   26095.80104713  .00006109  00000+0  26811-3 0  9991
2 12904  81.1605 181.6278 0013152 190.4179 169.6782 15.21717660977351
SL-3 R/B                
1 13068U 82013B   26095.79845036  .00004608  00000+0  19763-3 0  9992
2 13068  81.1718 128.9911 0023542  89.0692 271.3237 15.22271813408477
SL-3 R/B                
1 13154U 82039B   26095.82281896  .00003199  00000+0  19243-3 0  9995
2 13154  81.1551 184.6732 0028135 233.8547 126.0075 15.10247297385734
